{"type": "FeatureCollection", "features": [ {"type": "Feature", "properties": {"norad_id": 31361, "name": "FENGYUN 1C DEB", "group": "fengyun-1c-debris", "lat": -70.94105418550598, "lon": -1.789097545587623, "alt_km": 853.08756674288, "timestamp": "2025-12-23T11:34:48.444918+00:00", "meta": {"OBJECT_NAME": "FENGYUN 1C DEB", "OBJECT_ID": "1999-025BRR", "EPOCH": "2025-12-20T09:23:48.416640", "MEAN_MOTION": 14.17749362, "ECCENTRICITY": 0.00459663, "INCLINATION": 98.5514, "RA_OF_ASC_NODE": 329.4165, "ARG_OF_PERICENTER": 49.0881, "MEAN_ANOMALY": 311.4261, "EPHEMERIS_TYPE": 0, "CLASSIFICATION_TYPE": "U", "NORAD_CAT_ID": 31361, "ELEMENT_SET_NO": 999, "REV_AT_EPOCH": 96672, "BSTAR": 0.0001051526, "MEAN_MOTION_DOT": 1.75e-06, "MEAN_MOTION_DDOT": 0}, "tle": {"line1": "1 31361U 99025BRR 25354.39153260  .00000175  00000+0  10515-3 0  9994", "line2": "2 31361  98.5514 329.4165 0045966  49.0881 311.4261 14.17749362966720"}}, "geometry": {"type": "Point", "coordinates": [-1.789097545587623, -70.94105418550598]}}, {"type": "Feature", "properties": {"norad_id": 31362, "name": "FENGYUN 1C DEB", "group": "fengyun-1c-debris", "lat": -69.27784307766305, "lon": 147.8129115649302, "alt_km": 855.2774830024528, "timestamp": "2025-12-23T11:34:48.444928+00:00", "meta": {"OBJECT_NAME": "FENGYUN 1C DEB", "OBJECT_ID": "1999-025BRS", "EPOCH": "2025-12-20T19:42:50.989536", "MEAN_MOTION": 14.17383986, "ECCENTRICITY": 0.00192382, "INCLINATION": 98.6527, "RA_OF_ASC_NODE": 348.9576, "ARG_OF_PERICENTER": 73.5763, "MEAN_ANOMALY": 286.7525, "EPHEMERIS_TYPE": 0, "CLASSIFICATION_TYPE": "U", "NORAD_CAT_ID": 31362, "ELEMENT_SET_NO": 999, "REV_AT_EPOCH": 96690, "BSTAR": 0.00012611764, "MEAN_MOTION_DOT": 2.13e-06, "MEAN_MOTION_DDOT": 0}, "tle": {"line1": "1 31362U 99025BRS 25354.82142349  .00000213  00000+0  12612-3 0  9992", "line2": "2 31362  98.6527 348.9576 0019238  73.5763 286.7525 14.17383986966905"}}, "geometry": {"type": "Point", "coordinates": [147.8129115649302, -69.27784307766305]}}, {"type": "Feature", "properties": {"norad_id": 31364, "name": "FENGYUN 1C DEB", "group": "fengyun-1c-debris", "lat": 10.360195258583717, "lon": -60.760849527075884, "alt_km": 801.530388586978, "timestamp": "2025-12-23T11:34:48.444937+00:00", "meta": {"OBJECT_NAME": "FENGYUN 1C DEB", "OBJECT_ID": "1999-025BRU", "EPOCH": "2025-12-22T14:25:19.608960", "MEAN_MOTION": 14.14754235, "ECCENTRICITY": 0.00926631, "INCLINATION": 99.2629, "RA_OF_ASC_NODE": 116.6151, "ARG_OF_PERICENTER": 121.4714, "MEAN_ANOMALY": 239.5556, "EPHEMERIS_TYPE": 0, "CLASSIFICATION_TYPE": "U", "NORAD_CAT_ID": 31364, "ELEMENT_SET_NO": 999, "REV_AT_EPOCH": 95016, "BSTAR": 0.0025709802, "MEAN_MOTION_DOT": 5.119e-05, "MEAN_MOTION_DDOT": 0}, "tle": {"line1": "1 31364U 99025BRU 25356.60092140  .00005119  00000+0  25710-2 0  9997", "line2": "2 31364  99.2629 116.6151 0092663 121.4714 239.5556 14.14754235950165"}}, "geometry": {"type": "Point", "coordinates": [-60.760849527075884, 10.360195258583717]}}, {"type": "Feature", "properties": {"norad_id": 31365, "name": "FENGYUN 1C DEB", "group": "fengyun-1c-debris", "lat": 79.9004399143356, "lon": 23.70694181880808, "alt_km": 751.6499502005454, "timestamp": "2025-12-23T11:34:48.444946+00:00", "meta": {"OBJECT_NAME": "FENGYUN 1C DEB", "OBJECT_ID": "1999-025BRV", "EPOCH": "2025-12-20T11:34:27.632064", "MEAN_MOTION": 14.41935663, "ECCENTRICITY": 0.00427638, "INCLINATION": 98.6748, "RA_OF_ASC_NODE": 79.6546, "ARG_OF_PERICENTER": 197.3619, "MEAN_ANOMALY": 162.611, "EPHEMERIS_TYPE": 0, "CLASSIFICATION_TYPE": "U", "NORAD_CAT_ID": 31365, "ELEMENT_SET_NO": 999, "REV_AT_EPOCH": 96740, "BSTAR": 0.0013176751, "MEAN_MOTION_DOT": 4.321e-05, "MEAN_MOTION_DDOT": 0}, "tle": {"line1": "1 31365U 99025BRV 25354.48226426  .00004321  00000+0  13177-2 0  9996", "line2": "2 31365  98.6748  79.6546 0042763 197.3619 162.6110 14.41935663967402"}}, "geometry": {"type": "Point", "coordinates": [23.70694181880808, 79.9004399143356]}}, {"type": "Feature", "properties": {"norad_id": 31367, "name": "FENGYUN 1C DEB", "group": "fengyun-1c-debris", "lat": -22.85176152641989, "lon": 68.38982059825878, "alt_km": 793.6841098042569, "timestamp": "2025-12-23T11:34:48.444955+00:00", "meta": {"OBJECT_NAME": "FENGYUN 1C DEB", "OBJECT_ID": "1999-025BRX", "EPOCH": "2025-12-21T04:35:30.442848", "MEAN_MOTION": 14.47523379, "ECCENTRICITY": 0.00989793, "INCLINATION": 98.7459, "RA_OF_ASC_NODE": 249.7415, "ARG_OF_PERICENTER": 351.0863, "MEAN_ANOMALY": 159.9822, "EPHEMERIS_TYPE": 0, "CLASSIFICATION_TYPE": "U", "NORAD_CAT_ID": 31367, "ELEMENT_SET_NO": 999, "REV_AT_EPOCH": 98588, "BSTAR": 0.00041696927, "MEAN_MOTION_DOT": 1.578e-05, "MEAN_MOTION_DDOT": 0}, "tle": {"line1": "1 31367U 99025BRX 25355.19132457  .00001578  00000+0  41697-3 0  9997", "line2": "2 31367  98.7459 249.7415 0098979 351.0863 159.9822 14.47523379985883"}}, "geometry": {"type": "Point", "coordinates": [68.38982059825878, -22.85176152641989]}}, {"type": "Feature", "properties": {"norad_id": 31369, "name": "FENGYUN 1C DEB", "group": "fengyun-1c-debris", "lat": -66.75775676560453, "lon": 137.78655247060325, "alt_km": 797.7537356657358, "timestamp": "2025-12-23T11:34:48.444964+00:00", "meta": {"OBJECT_NAME": "FENGYUN 1C DEB", "OBJECT_ID": "1999-025BRZ", "EPOCH": "2025-12-22T05:43:23.781216", "MEAN_MOTION": 14.19422351, "ECCENTRICITY": 0.00541858, "INCLINATION": 98.6199, "RA_OF_ASC_NODE": 337.2588, "ARG_OF_PERICENTER": 271.6708, "MEAN_ANOMALY": 103.4899, "EPHEMERIS_TYPE": 0, "CLASSIFICATION_TYPE": "U", "NORAD_CAT_ID": 31369, "ELEMENT_SET_NO": 999, "REV_AT_EPOCH": 64462, "BSTAR": 0.00025442715, "MEAN_MOTION_DOT": 5e-06, "MEAN_MOTION_DDOT": 0}, "tle": {"line1": "1 31369U 99025BRZ 25356.23846969  .00000500  00000+0  25443-3 0  9990", "line2": "2 31369  98.6199 337.2588 0054185 271.6708 103.4899 14.19422351644624"}}, "geometry": {"type": "Point", "coordinates": [137.78655247060325, -66.75775676560453]}}, {"type": "Feature", "properties": {"norad_id": 31370, "name": "FENGYUN 1C DEB", "group": "fengyun-1c-debris", "lat": 8.311380959434537, "lon": -4.092759200509882, "alt_km": 866.8223598157583, "timestamp": "2025-12-23T11:34:48.444973+00:00", "meta": {"OBJECT_NAME": "FENGYUN 1C DEB", "OBJECT_ID": "1999-025BSA", "EPOCH": "2025-12-18T10:35:51.641952", "MEAN_MOTION": 14.09714607, "ECCENTRICITY": 0.00331839, "INCLINATION": 98.7533, "RA_OF_ASC_NODE": 352.2955, "ARG_OF_PERICENTER": 281.205, "MEAN_ANOMALY": 78.5392, "EPHEMERIS_TYPE": 0, "CLASSIFICATION_TYPE": "U", "NORAD_CAT_ID": 31370, "ELEMENT_SET_NO": 999, "REV_AT_EPOCH": 96374, "BSTAR": 0.00035450044, "MEAN_MOTION_DOT": 5.82e-06, "MEAN_MOTION_DDOT": 0}, "tle": {"line1": "1 31370U 99025BSA 25352.44156993  .00000582  00000+0  35450-3 0  9991", "line2": "2 31370  98.7533 352.2955 0033183 281.2050  78.5392 14.09714607963740"}}, "geometry": {"type": "Point", "coordinates": [-4.092759200509882, 8.311380959434537]}}, {"type": "Feature", "properties": {"norad_id": 31371, "name": "FENGYUN 1C DEB", "group": "fengyun-1c-debris", "lat": 67.67436144841646, "lon": 8.037093723883327, "alt_km": 919.1493300955763, "timestamp": "2025-12-23T11:34:48.444982+00:00", "meta": {"OBJECT_NAME": "FENGYUN 1C DEB", "OBJECT_ID": "1999-025BSB", "EPOCH": "2025-12-22T19:51:31.137408", "MEAN_MOTION": 14.04529651, "ECCENTRICITY": 0.00783572, "INCLINATION": 98.7647, "RA_OF_ASC_NODE": 29.4711, "ARG_OF_PERICENTER": 218.3757, "MEAN_ANOMALY": 141.1821, "EPHEMERIS_TYPE": 0, "CLASSIFICATION_TYPE": "U", "NORAD_CAT_ID": 31371, "ELEMENT_SET_NO": 999, "REV_AT_EPOCH": 95888, "BSTAR": 0.00067430107, "MEAN_MOTION_DOT": 1.063e-05, "MEAN_MOTION_DDOT": 0}, "tle": {"line1": "1 31371U 99025BSB 25356.82744372  .00001063  00000+0  67430-3 0  9990", "line2": "2 31371  98.7647  29.4711 0078357 218.3757 141.1821 14.04529651958888"}}, "geometry": {"type": "Point", "coordinates": [8.037093723883327, 67.67436144841646]}}, {"type": "Feature", "properties": {"norad_id": 31372, "name": "FENGYUN 1C DEB", "group": "fengyun-1c-debris", "lat": -56.11927950450071, "lon": 3.520554219400086, "alt_km": 815.0970055276903, "timestamp": "2025-12-23T11:34:48.444991+00:00", "meta": {"OBJECT_NAME": "FENGYUN 1C DEB", "OBJECT_ID": "1999-025BSC", "EPOCH": "2025-12-22T22:22:54.507648", "MEAN_MOTION": 14.26607096, "ECCENTRICITY": 0.00339166, "INCLINATION": 99.3749, "RA_OF_ASC_NODE": 348.6894, "ARG_OF_PERICENTER": 46.4084, "MEAN_ANOMALY": 313.99, "EPHEMERIS_TYPE": 0, "CLASSIFICATION_TYPE": "U", "NORAD_CAT_ID": 31372, "ELEMENT_SET_NO": 999, "REV_AT_EPOCH": 95996, "BSTAR": 0.0016229454, "MEAN_MOTION_DOT": 3.895e-05, "MEAN_MOTION_DDOT": 0}, "tle": {"line1": "1 31372U 99025BSC 25356.93257532  .00003895  00000+0  16229-2 0  9994", "line2": "2 31372  99.3749 348.6894 0033916  46.4084 313.9900 14.26607096959963"}}, "geometry": {"type": "Point", "coordinates": [3.520554219400086, -56.11927950450071]}}, {"type": "Feature", "properties": {"norad_id": 31376, "name": "FENGYUN 1C DEB", "group": "fengyun-1c-debris", "lat": 53.79617243162913, "lon": 106.69355405433866, "alt_km": 693.3977914182642, "timestamp": "2025-12-23T11:34:48.445000+00:00", "meta": {"OBJECT_NAME": "FENGYUN 1C DEB", "OBJECT_ID": "1999-025BSG", "EPOCH": "2025-12-22T12:00:27.959040", "MEAN_MOTION": 14.61892861, "ECCENTRICITY": 0.00484619, "INCLINATION": 98.8344, "RA_OF_ASC_NODE": 273.3774, "ARG_OF_PERICENTER": 238.0862, "MEAN_ANOMALY": 121.5619, "EPHEMERIS_TYPE": 0, "CLASSIFICATION_TYPE": "U", "NORAD_CAT_ID": 31376, "ELEMENT_SET_NO": 999, "REV_AT_EPOCH": 98285, "BSTAR": 0.0023150769, "MEAN_MOTION_DOT": 0.00011737, "MEAN_MOTION_DDOT": 0}, "tle": {"line1": "1 31376U 99025BSG 25356.50032360  .00011737  00000+0  23151-2 0  9997", "line2": "2 31376  98.8344 273.3774 0048461 238.0862 121.5619 14.61892861982856"}}, "geometry": {"type": "Point", "coordinates": [106.69355405433866, 53.79617243162913]}}]}